43072,IRIDIUM 116,2017,100.4,860.0,+,86.4,Active,1,LEO,USA,USA,Commercial/Government,Communications,Falcon,1 43072U 17083C   24175.22707468  .00000045  00000+0  89000-5 0  9990,2 43072  86.3964 264.5374 0002323  94.6276 265.5185 14.34217729340402,14.34217729,0.0002323,LEO
43073,IRIDIUM 130,2017,100.4,860.0,+,86.4,Active,1,LEO,USA,USA,Commercial/Government,Communications,Falcon,1 43073U 17083D   24174.77675014  .00000125  00000+0  37521-4 0  9990,2 43073  86.3971 264.9306 0002307  95.9531 264.1928 14.34217924340283,14.34217924,0.0002307,LEO
43074,IRIDIUM 151,2017,100.4,860.0,+,86.4,Active,1,LEO,USA,USA,Commercial/Government,Communications,Falcon,1 43074U 17083E   24174.75137973  .00000167  00000+0  52500-4 0  9996,2 43074  86.3965 264.7776 0002171  88.3336 271.8109 14.34218231340305,14.34218231,0.0002171,LEO
43075,IRIDIUM 134,2017,100.4,860.0,+,86.4,Active,1,LEO,USA,USA,Commercial/Government,Communications,Falcon,1 43075U 17083F   24174.78943592  .00000124  00000+0  37140-4 0  9998,2 43075  86.3966 264.7600 0002389  98.4854 261.6612 14.34217724340279,14.34217724,0.0002389,LEO
43076,IRIDIUM 137,2017,100.4,860.0,+,86.4,Active,1,LEO,USA,USA,Commercial/Government,Communications,Falcon,1 43076U 17083G   24174.80212098 -.00000020  00000+0 -14137-4 0  9990,2 43076  86.3966 264.8327 0002455  84.6147 275.5329 14.34217482340341,14.34217482,0.0002455,LEO
43077,IRIDIUM 141,2017,100.4,860.0,+,86.4,Active,1,LEO,USA,USA,Commercial/Government,Communications,Falcon,1 43077U 17083H   24174.79577429  .00000289  00000+0  96016-4 0  9992,2 43077  86.3963 264.7071 0002040  96.8747 263.2681 14.34217293340340,14.34217293,0.000204,LEO
43078,IRIDIUM 153,2017,100.4,860.0,+,86.4,Active,1,LEO,USA,USA,Commercial/Government,Communications,Falcon,1 43078U 17083J   24174.67817323  .00000244  00000+0  80034-4 0  9994,2 43078  86.3979 233.2205 0001738  98.3128 261.8265 14.34215728341435,14.34215728,0.0001738,LEO
43079,IRIDIUM 131,2017,100.4,860.0,+,86.4,Active,1,LEO,USA,USA,Commercial/Government,Communications,Falcon,1 43079U 17083K   24175.20170379  .00000083  00000+0  22621-4 0  9997,2 43079  86.3969 264.6753 0002235  90.8686 269.2766 14.34217784340330,14.34217784,0.0002235,LEO
